HST                     
1 20580U 90037B   24266.58518828  .00008885  00000+0  39677-3 0  9992
2 20580  28.4690  51.7684 0003063  37.7728 322.3080 15.19586975691856
